      2.10          N: GNSS NAV DATA                        RINEX VERSION / TYPE
fic2rin                                 11/16/2018 00:20:53 PGM / RUN BY / DATE
                                                            END OF HEADER
30 18 11 15  2  0  0.0-4.905741661787e-06-5.684341886081e-12 0.000000000000e+00
    7.300000000000e+01 2.384375000000e+01 5.134499586803e-09 3.022694307076e+00
    1.305714249611e-06 3.572691814043e-03 7.055699825287e-06 5.153660987854e+03
    3.528000000000e+05-2.421438694000e-08-2.572467000342e+00-3.166496753693e-08
    9.428509522467e-01 2.367812500000e+02-2.980827968890e+00-8.225342618536e-09
   -1.753644474903e-10 1.000000000000e+00 2.027000000000e+03 0.000000000000e+00
    2.400000000000e+00 0.000000000000e+00 3.725290298462e-09 7.300000000000e+01
    3.456060000000e+05 4.000000000000e+00
25 18 11 15  2  0  0.0-6.769304163754e-04-5.570655048359e-12 0.000000000000e+00
    6.000000000000e+01 4.334375000000e+01 4.196246219070e-09 2.082983293438e+00
    2.162531018257e-06 7.600367069244e-03 7.331371307373e-06 5.153569282532e+03
    3.528000000000e+05-1.545995473862e-07-1.568980980047e+00-1.247972249985e-07
    9.722591166433e-01 2.438125000000e+02 8.504940256214e-01-7.873899408087e-09
   -9.250385315679e-11 1.000000000000e+00 2.027000000000e+03 0.000000000000e+00
    2.400000000000e+00 0.000000000000e+00 5.587935447693e-09 6.000000000000e+01
    3.456060000000e+05 4.000000000000e+00
23 18 11 15  2  0  0.0-2.061789855361e-04 1.023181539495e-12 0.000000000000e+00
    8.500000000000e+01 1.950000000000e+01 4.971992817744e-09-1.813129029930e+00
    8.326023817062e-07 1.262636436149e-02 7.342547178268e-06 5.153692829132e+03
    3.528000000000e+05 1.918524503708e-07 2.599824446175e+00-1.043081283569e-07
    9.434972533620e-01 2.226562500000e+02-2.320106084474e+00-8.028191549260e-09
    3.171560679661e-10 1.000000000000e+00 2.027000000000e+03 0.000000000000e+00
    2.400000000000e+00 0.000000000000e+00-2.002343535423e-08 8.500000000000e+01
    3.456060000000e+05 4.000000000000e+00
15 18 11 15  2  0  0.0-3.397539258003e-04 1.250555214938e-12 0.000000000000e+00
    8.000000000000e+01 1.656250000000e+01 5.342008230371e-09-1.318572939856e+00
    9.164214134216e-07 1.101832860149e-02 7.169321179390e-06 5.153590610504e+03
    3.528000000000e+05 2.235174179077e-07 2.528029533892e+00-2.793967723846e-08
    9.281531664478e-01 2.169687500000e+02 7.326957759486e-01-8.349990667770e-09
    2.321525272275e-10 1.000000000000e+00 2.027000000000e+03 0.000000000000e+00
    2.400000000000e+00 0.000000000000e+00-1.117587089539e-08 8.000000000000e+01
    3.456060000000e+05 4.000000000000e+00
11 18 11 15  2  0  0.0-6.997445598245e-04 4.092726157978e-12 0.000000000000e+00
    9.000000000000e+01-3.215625000000e+01 5.672736292236e-09 3.017585785440e+00
   -1.499429345131e-06 1.679970941041e-02 3.501772880554e-06 5.153670263290e+03
    3.528000000000e+05 1.918524503708e-07 8.908187290329e-02 1.210719347000e-07
    9.076337230220e-01 2.825625000000e+02 1.840575693286e+00-8.529998165805e-09
   -4.607334771129e-11 1.000000000000e+00 2.027000000000e+03 0.000000000000e+00
    2.400000000000e+00 0.000000000000e+00-1.210719347000e-08 9.000000000000e+01
    3.456060000000e+05 4.000000000000e+00
 7 18 11 15  2  0  0.0 8.834153413773e-05-6.934897101019e-12 0.000000000000e+00
    5.400000000000e+01 2.471875000000e+01 4.726268296617e-09 3.041990038547e+00
    1.203268766403e-06 1.208990812302e-02 7.266178727150e-06 5.153630189896e+03
    3.528000000000e+05-3.911554813385e-08-2.603520094697e+00-1.657754182816e-07
    9.573323344258e-01 2.396562500000e+02-2.481548372348e+00-7.889257190657e-09
   -1.921508609975e-10 1.000000000000e+00 2.027000000000e+03 0.000000000000e+00
    2.400000000000e+00 0.000000000000e+00-1.117587089539e-08 5.400000000000e+01
    3.456060000000e+05 4.000000000000e+00
 9 18 11 15  2  0  0.0 4.923995584249e-04-3.296918293927e-12 0.000000000000e+00
    5.200000000000e+01 1.868750000000e+01 4.811628995090e-09 3.917262762860e-02
    7.580965757370e-07 1.361168571748e-03 7.910653948784e-06 5.153785957336e+03
    3.528000000000e+05 3.725290298462e-09 2.603071111972e+00-5.587935447693e-09
    9.526861841407e-01 2.220937500000e+02 1.680732977595e+00-8.099980253833e-09
    1.946509651369e-10 1.000000000000e+00 2.027000000000e+03 0.000000000000e+00
    2.400000000000e+00 0.000000000000e+00 1.396983861923e-09 5.200000000000e+01
    3.456060000000e+05 4.000000000000e+00
21 18 11 15  2  0  0.0-3.042230382562e-04 6.480149750132e-12 0.000000000000e+00
    6.300000000000e+01-6.487500000000e+01 4.675909056095e-09 1.933022628871e+00
   -3.755092620850e-06 2.444523642771e-02 5.008652806282e-06 5.153593000412e+03
    3.528000000000e+05 4.135072231293e-07 4.681813521468e-01-2.887099981308e-07
    9.461629709827e-01 2.702187500000e+02-1.513012704058e+00-7.956402844686e-09
   -6.000249934494e-11 1.000000000000e+00 2.027000000000e+03 0.000000000000e+00
    2.400000000000e+00 0.000000000000e+00-9.778887033463e-09 6.300000000000e+01
    3.456060000000e+05 4.000000000000e+00
19 18 11 15  2  0  0.0-3.836373798549e-04 3.751665644813e-12 0.000000000000e+00
    5.800000000000e+01 9.281250000000e+00 4.122671725825e-09 2.341220438166e+00
    2.551823854446e-07 9.474046179093e-03 4.719942808151e-06 5.153608400345e+03
    3.528000000000e+05 3.911554813385e-08-4.266289166811e-01-1.285225152969e-07
    9.814038921657e-01 2.960000000000e+02 1.312191616585e+00-7.878899616366e-09
   -3.964450849577e-11 1.000000000000e+00 2.027000000000e+03 0.000000000000e+00
    2.400000000000e+00 0.000000000000e+00-1.536682248116e-08 5.800000000000e+01
    3.456060000000e+05 4.000000000000e+00
32 18 11 15  2  0  0.0-3.567840903997e-04 1.409716787748e-11 0.000000000000e+00
    4.400000000000e+01 1.862500000000e+01 4.788056584633e-09 3.669346073621e-01
    9.275972843170e-07 2.327509573661e-03 7.750466465950e-06 5.153722148895e+03
    3.528000000000e+05-5.587935447693e-09 2.608856995400e+00 5.401670932770e-08
    9.570128272656e-01 2.304062500000e+02-2.607371659564e+00-8.102837515707e-09
    1.553636143753e-10 1.000000000000e+00 2.027000000000e+03 0.000000000000e+00
    2.400000000000e+00 0.000000000000e+00 4.656612873077e-10 4.400000000000e+01
    3.456060000000e+05 4.000000000000e+00
31 18 11 15  2  0  0.0 7.965276017785e-05-2.614797267597e-12 0.000000000000e+00
    6.400000000000e+01 2.709375000000e+01 4.638050336270e-09 2.757364422016e+00
    1.484528183937e-06 9.064821060747e-03 7.620081305504e-06 5.153781229019e+03
    3.528000000000e+05-1.825392246246e-07-2.590281072290e+00 8.195638656616e-08
    9.619324891036e-01 2.341875000000e+02-7.891317614768e-02-7.909972339241e-09
   -1.853648640478e-10 1.000000000000e+00 2.027000000000e+03 0.000000000000e+00
    2.400000000000e+00 0.000000000000e+00-1.350417733192e-08 6.400000000000e+01
    3.456060000000e+05 4.000000000000e+00
18 18 11 15  2  0  0.0 7.940456271172e-05 4.092726157978e-12 0.000000000000e+00
    5.500000000000e+01-6.828125000000e+01 4.596977196838e-09-2.822376954963e+00
   -3.375113010406e-06 1.496210740879e-02 5.461275577545e-06 5.153622158051e+03
    3.528000000000e+05 1.676380634308e-07 4.762453413472e-01 1.117587089539e-08
    9.518738198796e-01 2.671875000000e+02 1.363327324101e+00-7.996047353182e-09
   -2.142946405177e-12 1.000000000000e+00 2.027000000000e+03 0.000000000000e+00
    2.400000000000e+00 0.000000000000e+00-6.519258022308e-09 5.500000000000e+01
    3.456060000000e+05 4.000000000000e+00
29 18 11 15  2  0  0.0 3.359843976796e-04-7.958078640513e-12 0.000000000000e+00
    7.300000000000e+01 7.625000000000e+00 3.982665894021e-09 1.388043240201e-01
    3.445893526077e-07 6.706031272188e-04 5.124136805534e-06 5.153605619431e+03
    3.528000000000e+05-5.587935447693e-09-4.624063250338e-01 3.352761268616e-08
    9.850912035170e-01 2.926562500000e+02 1.657385650616e+00-7.937830642508e-09
    2.142946405177e-12 1.000000000000e+00 2.027000000000e+03 0.000000000000e+00
    2.400000000000e+00 0.000000000000e+00-1.024454832077e-08 7.300000000000e+01
    3.456060000000e+05 4.000000000000e+00
20 18 11 15  2  0  0.0 5.187038332224e-04 4.547473508865e-13 0.000000000000e+00
    6.700000000000e+01-3.756250000000e+01 5.116284542359e-09-2.786954160879e+00
   -1.873821020126e-06 4.462333512492e-03 8.428469300270e-06 5.153673158646e+03
    3.528000000000e+05 5.587935447693e-09 1.454633615146e+00 4.284083843231e-08
    9.289912780670e-01 1.966250000000e+02 2.167427218638e+00-8.217485148383e-09
    1.571494030463e-10 1.000000000000e+00 2.027000000000e+03 0.000000000000e+00
    2.400000000000e+00 0.000000000000e+00-8.381903171539e-09 6.700000000000e+01
    3.456060000000e+05 4.000000000000e+00
28 18 11 15  2  0  0.0 7.545687258244e-04 1.705302565824e-12 0.000000000000e+00
    4.900000000000e+01 3.815625000000e+01 4.084098690532e-09 4.725340761753e-01
    2.022832632065e-06 1.966172829270e-02 8.491799235344e-06 5.153697050095e+03
    3.528000000000e+05-2.197921276093e-07-1.484016699275e+00-1.080334186554e-07
    9.840180346095e-01 2.338437500000e+02-1.499332257824e+00-8.213556413307e-09
   -1.939366496685e-10 1.000000000000e+00 2.027000000000e+03 0.000000000000e+00
    3.400000000000e+00 0.000000000000e+00-1.117587089539e-08 4.900000000000e+01
    3.456060000000e+05 4.000000000000e+00
14 18 11 15  3  0  0.0-9.579211473465e-05 3.410605131648e-13 0.000000000000e+00
    1.090000000000e+02 2.159375000000e+01 4.720196615135e-09-1.431884071605e-01
    1.059845089912e-06 9.992607752793e-03 7.793307304382e-06 5.153642627716e+03
    3.564000000000e+05-1.285225152969e-07 2.694236219719e+00 1.806765794754e-07
    9.609077281553e-01 2.350312500000e+02-1.946265223724e+00-8.207841889560e-09
    1.432202514126e-10 1.000000000000e+00 2.027000000000e+03 0.000000000000e+00
    3.400000000000e+00 0.000000000000e+00-9.778887033463e-09 1.090000000000e+02
    3.456060000000e+05 6.000000000000e+00
